1 27424U 02022A   11005.68370900 -.00003682 +00000-0 -80798-3 0 08394
2 27424 098.2107 308.8223 0001137 102.8919 257.2611 14.57087718461403